{
  "type": "FeatureCollection",
  "features": [
    {
      "type": "Feature",
      "geometry": {
        "type": "LineString",
        "coordinates": [
          [
            114.2119,
            22.4257
          ],
          [
            114.215,
            22.433
          ],
          [
            114.2215,
            22.449
          ],
          [
            114.224,
            22.456
          ],
          [
            114.2245,
            22.4765
          ]
        ]
      },
      "properties": {
        "feature_type": "planned_route",
        "scenario_id": "science_park_to_ting_kok_demo",
        "status": "direct",
        "distance_km_estimate": 5.87216631004457,
        "charging_station": null
      }
    },
    {
      "type": "Feature",
      "geometry": {
        "type": "Point",
        "coordinates": [
          114.2119,
          22.4257
        ]
      },
      "properties": {
        "feature_type": "route_node",
        "order": 0,
        "node_id": "hong_kong_science_park",
        "name": "Hong Kong Science Park",
        "kind": "depot",
        "source": "public_estimate"
      }
    },
    {
      "type": "Feature",
      "geometry": {
        "type": "Point",
        "coordinates": [
          114.215,
          22.433
        ]
      },
      "properties": {
        "feature_type": "route_node",
        "order": 1,
        "node_id": "pak_shek_kok_waterfront",
        "name": "Pak Shek Kok waterfront waypoint",
        "kind": "waypoint",
        "source": "public_estimate"
      }
    },
    {
      "type": "Feature",
      "geometry": {
        "type": "Point",
        "coordinates": [
          114.2215,
          22.449
        ]
      },
      "properties": {
        "feature_type": "route_node",
        "order": 2,
        "node_id": "demo_relay_pad_tolo_harbour",
        "name": "Demo relay or charging pad near Tolo Harbour",
        "kind": "charger",
        "source": "demo_assumption"
      }
    },
    {
      "type": "Feature",
      "geometry": {
        "type": "Point",
        "coordinates": [
          114.224,
          22.456
        ]
      },
      "properties": {
        "feature_type": "route_node",
        "order": 3,
        "node_id": "tolo_harbour_mid",
        "name": "Tolo Harbour mid-route waypoint",
        "kind": "waypoint",
        "source": "demo_assumption"
      }
    },
    {
      "type": "Feature",
      "geometry": {
        "type": "Point",
        "coordinates": [
          114.2245,
          22.4765
        ]
      },
      "properties": {
        "feature_type": "route_node",
        "order": 4,
        "node_id": "ting_kok_village",
        "name": "Ting Kok Village, Tai Po",
        "kind": "destination",
        "source": "public_estimate"
      }
    }
  ],
  "properties": {
    "scenario_id": "science_park_to_ting_kok_demo",
    "name": "Hong Kong Science Park to Tai Po Ting Kok Village demo",
    "rfz_summary": {
      "source": "data/geospatial/rfz.geojson",
      "loaded_zone_count": 288,
      "planning_zone_count": 259,
      "authorized_zone_count": 29,
      "authorized_keywords": [
        "低空經濟監管沙盒"
      ]
    },
    "data_limitations": [
      "Keeta Drone internal API, aircraft telemetry, real flight route, launch pad, charging pad, and dispatch data are unavailable.",
      "Coordinates and intermediate waypoints are public or demo estimates for local algorithm demonstration.",
      "RFZ polygons come from the local GeoJSON file and are used as no-fly constraints."
    ]
  }
}
